{
  "type": "FeatureCollection",
  "features": [
    {
      "type": "Feature",
      "properties": {
        "norad_id": 25590,
        "name": "COSMOS 2361",
        "group": "musson",
        "lat": 70.87275961884951,
        "lon": -5.859729045572932,
        "alt_km": 1000.7483409090455,
        "timestamp": "2025-12-27T11:23:20.167295+00:00",
        "meta_object_name": "COSMOS 2361",
        "meta_object_id": "1998-076A",
        "meta_epoch": "2025-12-27T04:05:37.857120",
        "meta_mean_motion": 13.73219116,
        "meta_eccentricity": 0.0030413,
        "meta_inclination": 82.9347,
        "meta_ra_of_asc_node": 333.4127,
        "meta_arg_of_pericenter": 223.8805,
        "meta_mean_anomaly": 146.6858,
        "meta_ephemeris_type": 0,
        "meta_classification_type": "U",
        "meta_norad_cat_id": 25590,
        "meta_element_set_no": 999,
        "meta_rev_at_epoch": 35309,
        "meta_bstar": 6.9641e-05,
        "meta_mean_motion_dot": 8e-07,
        "meta_mean_motion_ddot": 0,
        "tle_line1": "1 25590U 98076A   25361.17057705  .00000080  00000+0  69641-4 0  9997",
        "tle_line2": "2 25590  82.9347 333.4127 0030413 223.8805 146.6858 13.73219116353090"
      },
      "geometry": {
        "type": "Point",
        "coordinates": [
          -5.859729045572932,
          70.87275961884951
        ]
      }
    },
    {
      "type": "Feature",
      "properties": {
        "norad_id": 26818,
        "name": "COSMOS 2378",
        "group": "musson",
        "lat": -14.179759615646558,
        "lon": 170.59599371447436,
        "alt_km": 968.1225208858177,
        "timestamp": "2025-12-27T11:23:20.167316+00:00",
        "meta_object_name": "COSMOS 2378",
        "meta_object_id": "2001-023A",
        "meta_epoch": "2025-12-27T02:02:30.471360",
        "meta_mean_motion": 13.74143194,
        "meta_eccentricity": 0.0033314,
        "meta_inclination": 82.9272,
        "meta_ra_of_asc_node": 349.0871,
        "meta_arg_of_pericenter": 164.7741,
        "meta_mean_anomaly": 263.6474,
        "meta_ephemeris_type": 0,
        "meta_classification_type": "U",
        "meta_norad_cat_id": 26818,
        "meta_element_set_no": 999,
        "meta_rev_at_epoch": 23120,
        "meta_bstar": 5.2726e-05,
        "meta_mean_motion_dot": 6.5e-07,
        "meta_mean_motion_ddot": 0,
        "tle_line1": "1 26818U 01023A   25361.08507490  .00000065  00000+0  52726-4 0  9997",
        "tle_line2": "2 26818  82.9272 349.0871 0033314 164.7741 263.6474 13.74143194231200"
      },
      "geometry": {
        "type": "Point",
        "coordinates": [
          170.59599371447436,
          -14.179759615646558
        ]
      }
    },
    {
      "type": "Feature",
      "properties": {
        "norad_id": 27436,
        "name": "COSMOS 2389",
        "group": "musson",
        "lat": 81.32651111236717,
        "lon": 61.88087702699279,
        "alt_km": 964.36425806038,
        "timestamp": "2025-12-27T11:23:20.167328+00:00",
        "meta_object_name": "COSMOS 2389",
        "meta_object_id": "2002-026A",
        "meta_epoch": "2025-12-27T04:30:05.705856",
        "meta_mean_motion": 13.75156199,
        "meta_eccentricity": 0.0046964,
        "meta_inclination": 82.9514,
        "meta_ra_of_asc_node": 296.29,
        "meta_arg_of_pericenter": 21.2647,
        "meta_mean_anomaly": 93.3926,
        "meta_ephemeris_type": 0,
        "meta_classification_type": "U",
        "meta_norad_cat_id": 27436,
        "meta_element_set_no": 999,
        "meta_rev_at_epoch": 18347,
        "meta_bstar": 6.5952e-05,
        "meta_mean_motion_dot": 7.9e-07,
        "meta_mean_motion_ddot": 0,
        "tle_line1": "1 27436U 02026A   25361.18756604  .00000079  00000+0  65952-4 0  9992",
        "tle_line2": "2 27436  82.9514 296.2900 0046964  21.2647  93.3926 13.75156199183474"
      },
      "geometry": {
        "type": "Point",
        "coordinates": [
          61.88087702699279,
          81.32651111236717
        ]
      }
    },
    {
      "type": "Feature",
      "properties": {
        "norad_id": 27818,
        "name": "COSMOS 2398",
        "group": "musson",
        "lat": -78.1782757297281,
        "lon": 118.09561182413213,
        "alt_km": 1022.230034637887,
        "timestamp": "2025-12-27T11:23:20.167339+00:00",
        "meta_object_name": "COSMOS 2398",
        "meta_object_id": "2003-023A",
        "meta_epoch": "2025-12-27T03:56:00.400992",
        "meta_mean_motion": 13.72387343,
        "meta_eccentricity": 0.003268,
        "meta_inclination": 82.9481,
        "meta_ra_of_asc_node": 262.0696,
        "meta_arg_of_pericenter": 73.3808,
        "meta_mean_anomaly": 93.2309,
        "meta_ephemeris_type": 0,
        "meta_classification_type": "U",
        "meta_norad_cat_id": 27818,
        "meta_element_set_no": 999,
        "meta_rev_at_epoch": 13014,
        "meta_bstar": 6.3449e-05,
        "meta_mean_motion_dot": 7.4e-07,
        "meta_mean_motion_ddot": 0,
        "tle_line1": "1 27818U 03023A   25361.16389353  .00000074  00000+0  63449-4 0  9999",
        "tle_line2": "2 27818  82.9481 262.0696 0032680  73.3808  93.2309 13.72387343130145"
      },
      "geometry": {
        "type": "Point",
        "coordinates": [
          118.09561182413213,
          -78.1782757297281
        ]
      }
    },
    {
      "type": "Feature",
      "properties": {
        "norad_id": 28380,
        "name": "COSMOS 2407",
        "group": "musson",
        "lat": -55.52999592619525,
        "lon": -168.3878161400747,
        "alt_km": 974.2318610771181,
        "timestamp": "2025-12-27T11:23:20.167350+00:00",
        "meta_object_name": "COSMOS 2407",
        "meta_object_id": "2004-028A",
        "meta_epoch": "2025-12-27T01:43:56.683776",
        "meta_mean_motion": 13.76315244,
        "meta_eccentricity": 0.0039606,
        "meta_inclination": 82.9593,
        "meta_ra_of_asc_node": 202.2807,
        "meta_arg_of_pericenter": 15.5974,
        "meta_mean_anomaly": 96.2923,
        "meta_ephemeris_type": 0,
        "meta_classification_type": "U",
        "meta_norad_cat_id": 28380,
        "meta_element_set_no": 999,
        "meta_rev_at_epoch": 7620,
        "meta_bstar": 4.7452e-05,
        "meta_mean_motion_dot": 6.2e-07,
        "meta_mean_motion_ddot": 0,
        "tle_line1": "1 28380U 04028A   25361.07218384  .00000062  00000+0  47452-4 0  9998",
        "tle_line2": "2 28380  82.9593 202.2807 0039606  15.5974  96.2923 13.76315244 76207"
      },
      "geometry": {
        "type": "Point",
        "coordinates": [
          -168.3878161400747,
          -55.52999592619525
        ]
      }
    },
    {
      "type": "Feature",
      "properties": {
        "norad_id": 28521,
        "name": "COSMOS 2414",
        "group": "musson",
        "lat": 76.2926571779857,
        "lon": -36.97511425978245,
        "alt_km": 898.5164603807743,
        "timestamp": "2025-12-27T11:23:20.167362+00:00",
        "meta_object_name": "COSMOS 2414",
        "meta_object_id": "2005-002A",
        "meta_epoch": "2025-12-26T22:47:28.650624",
        "meta_mean_motion": 13.8790478,
        "meta_eccentricity": 0.0041442,
        "meta_inclination": 82.9489,
        "meta_ra_of_asc_node": 173.9145,
        "meta_arg_of_pericenter": 100.34,
        "meta_mean_anomaly": 260.2439,
        "meta_ephemeris_type": 0,
        "meta_classification_type": "U",
        "meta_norad_cat_id": 28521,
        "meta_element_set_no": 999,
        "meta_rev_at_epoch": 5992,
        "meta_bstar": 5.844e-05,
        "meta_mean_motion_dot": 8.6e-07,
        "meta_mean_motion_ddot": 0,
        "tle_line1": "1 28521U 05002A   25360.94963716  .00000086  00000+0  58440-4 0  9994",
        "tle_line2": "2 28521  82.9489 173.9145 0041442 100.3400 260.2439 13.87904780 59921"
      },
      "geometry": {
        "type": "Point",
        "coordinates": [
          -36.97511425978245,
          76.2926571779857
        ]
      }
    },
    {
      "type": "Feature",
      "properties": {
        "norad_id": 32052,
        "name": "COSMOS 2429",
        "group": "musson",
        "lat": -78.10088263684044,
        "lon": -63.33232381842223,
        "alt_km": 982.3103729139921,
        "timestamp": "2025-12-27T11:23:20.167372+00:00",
        "meta_object_name": "COSMOS 2429",
        "meta_object_id": "2007-038A",
        "meta_epoch": "2025-12-27T04:47:31.532064",
        "meta_mean_motion": 13.75150845,
        "meta_eccentricity": 0.0038365,
        "meta_inclination": 82.981,
        "meta_ra_of_asc_node": 332.6487,
        "meta_arg_of_pericenter": 357.9707,
        "meta_mean_anomaly": 2.1287,
        "meta_ephemeris_type": 0,
        "meta_classification_type": "U",
        "meta_norad_cat_id": 32052,
        "meta_element_set_no": 999,
        "meta_rev_at_epoch": 91801,
        "meta_bstar": 6.5136e-05,
        "meta_mean_motion_dot": 7.8e-07,
        "meta_mean_motion_ddot": 0,
        "tle_line1": "1 32052U 07038A   25361.19967051  .00000078  00000+0  65136-4 0  9994",
        "tle_line2": "2 32052  82.9810 332.6487 0038365 357.9707   2.1287 13.75150845918016"
      },
      "geometry": {
        "type": "Point",
        "coordinates": [
          -63.33232381842223,
          -78.10088263684044
        ]
      }
    },
    {
      "type": "Feature",
      "properties": {
        "norad_id": 35635,
        "name": "COSMOS 2454",
        "group": "musson",
        "lat": -77.0443698955905,
        "lon": 9.985530519409288,
        "alt_km": 946.4705865176056,
        "timestamp": "2025-12-27T11:23:20.167398+00:00",
        "meta_object_name": "COSMOS 2454",
        "meta_object_id": "2009-039A",
        "meta_epoch": "2025-12-27T04:04:13.624896",
        "meta_mean_motion": 13.8993039,
        "meta_eccentricity": 0.0019891,
        "meta_inclination": 82.9559,
        "meta_ra_of_asc_node": 157.7063,
        "meta_arg_of_pericenter": 34.8041,
        "meta_mean_anomaly": 139.4805,
        "meta_ephemeris_type": 0,
        "meta_classification_type": "U",
        "meta_norad_cat_id": 35635,
        "meta_element_set_no": 999,
        "meta_rev_at_epoch": 83350,
        "meta_bstar": 5.8932e-05,
        "meta_mean_motion_dot": 8.9e-07,
        "meta_mean_motion_ddot": 0,
        "tle_line1": "1 35635U 09039A   25361.16960214  .00000089  00000+0  58932-4 0  9996",
        "tle_line2": "2 35635  82.9559 157.7063 0019891  34.8041 139.4805 13.89930390833503"
      },
      "geometry": {
        "type": "Point",
        "coordinates": [
          9.985530519409288,
          -77.0443698955905
        ]
      }
    },
    {
      "type": "Feature",
      "properties": {
        "norad_id": 36519,
        "name": "COSMOS 2463",
        "group": "musson",
        "lat": 50.60168286239001,
        "lon": 24.536127647634974,
        "alt_km": 1013.8647189551002,
        "timestamp": "2025-12-27T11:23:20.167414+00:00",
        "meta_object_name": "COSMOS 2463",
        "meta_object_id": "2010-017A",
        "meta_epoch": "2025-12-27T04:29:02.150016",
        "meta_mean_motion": 13.71650374,
        "meta_eccentricity": 0.0034857,
        "meta_inclination": 82.9602,
        "meta_ra_of_asc_node": 16.0951,
        "meta_arg_of_pericenter": 246.474,
        "meta_mean_anomaly": 184.7384,
        "meta_ephemeris_type": 0,
        "meta_classification_type": "U",
        "meta_norad_cat_id": 36519,
        "meta_element_set_no": 999,
        "meta_rev_at_epoch": 78435,
        "meta_bstar": 3.7871e-05,
        "meta_mean_motion_dot": 4.9e-07,
        "meta_mean_motion_ddot": 0,
        "tle_line1": "1 36519U 10017A   25361.18683044  .00000049  00000+0  37871-4 0  9996",
        "tle_line2": "2 36519  82.9602  16.0951 0034857 246.4740 184.7384 13.71650374784358"
      },
      "geometry": {
        "type": "Point",
        "coordinates": [
          24.536127647634974,
          50.60168286239001
        ]
      }
    }
  ]
}